{
    "links": {
        "self": "http://www.neowsapp.com/rest/v1/neo/3678564?api_key=iIulBulltgU6a56xZRHN4H3l9WmuAYTsLGpBGhQ2"
    },
    "id": "3678564",
    "neo_reference_id": "3678564",
    "name": "(2014 OF338)",
    "designation": "2014 OF338",
    "nasa_jpl_url": "http://ssd.jpl.nasa.gov/sbdb.cgi?sstr=3678564",
    "absolute_magnitude_h": 22.3,
    "estimated_diameter": {
        "kilometers": {
            "estimated_diameter_min": 0.0921626549,
            "estimated_diameter_max": 0.2060819612
        },
        "meters": {
            "estimated_diameter_min": 92.1626548503,
            "estimated_diameter_max": 206.0819612321
        },
        "miles": {
            "estimated_diameter_min": 0.057267201,
            "estimated_diameter_max": 0.1280533543
        },
        "feet": {
            "estimated_diameter_min": 302.370924539,
            "estimated_diameter_max": 676.1219416887
        }
    },
    "is_potentially_hazardous_asteroid": false,
    "close_approach_data": [
        {
            "close_approach_date": "2014-07-19",
            "close_approach_date_full": "2014-Jul-19 17:40",
            "epoch_date_close_approach": 1405791600000,
            "relative_velocity": {
                "kilometers_per_second": "4.5562009517",
                "kilometers_per_hour": "16402.3234260351",
                "miles_per_hour": "10191.765908805"
            },
            "miss_distance": {
                "astronomical": "0.2572141937",
                "lunar": "100.0563213493",
                "kilometers": "38478695.511287419",
                "miles": "23909552.6900236222"
            },
            "orbiting_body": "Earth"
        },
        {
            "close_approach_date": "2021-07-16",
            "close_approach_date_full": "2021-Jul-16 21:16",
            "epoch_date_close_approach": 1626470160000,
            "relative_velocity": {
                "kilometers_per_second": "4.0562860778",
                "kilometers_per_hour": "14602.6298801065",
                "miles_per_hour": "9073.5063274473"
            },
            "miss_distance": {
                "astronomical": "0.2193137328",
                "lunar": "85.3130420592",
                "kilometers": "32808867.288629136",
                "miles": "20386484.7992926368"
            },
            "orbiting_body": "Earth"
        }
    ],
    "orbital_data": {
        "orbit_id": "8",
        "orbit_determination_date": "2017-04-06 08:39:27",
        "first_observation_date": "2014-07-29",
        "last_observation_date": "2014-09-24",
        "data_arc_in_days": 57,
        "observations_used": 30,
        "orbit_uncertainty": "7",
        "minimum_orbit_intersection": ".219815",
        "jupiter_tisserand_invariant": "3.427",
        "epoch_osculation": "2459000.5",
        "eccentricity": ".4653490965361264",
        "semi_major_axis": "2.310515091838463",
        "inclination": "4.82276299406009",
        "ascending_node_longitude": "106.2880439839506",
        "orbital_period": "1282.807945631723",
        "perihelion_distance": "1.235318981318349",
        "perihelion_argument": "189.5683767422929",
        "aphelion_distance": "3.385711202358577",
        "perihelion_time": "2459414.777376164003",
        "mean_anomaly": "243.7395294230138",
        "mean_motion": ".2806343702702252",
        "equinox": "J2000",
        "orbit_class": {
            "orbit_class_type": "AMO",
            "orbit_class_description": "Near-Earth asteroid orbits similar to that of 1221 Amor",
            "orbit_class_range": "1.017 AU < q (perihelion) < 1.3 AU"
        }
    },
    "is_sentry_object": false
}